IRIDIUM 26              
1 24903U 97043A   25200.84069884  .00000246  00000+0  76163-4 0  9995
2 24903  86.3947  96.9061 0002137  79.9280 280.2158 14.37164503461434
IRIDIUM 22              
1 24907U 97043E   25200.72784873  .00000222  00000+0  69652-4 0  9997
2 24907  86.3955 100.5220 0002093  85.3593 274.7843 14.35974456461449
DUMMY MASS 1            
1 24925U 97048A   25200.31467513  .00000314  00000+0  31913-4 0  9997
2 24925  86.3364 120.4798 0008251  47.2178 312.9740 14.87006520509902
DUMMY MASS 2            
1 24926U 97048B   25200.75331281  .00000330  00000+0  33902-4 0  9996
2 24926  86.3367 121.8903 0009292  54.0149 306.1936 14.86758851509743
IRIDIUM 29              
1 24944U 97051A   25200.73920023  .00000311  00000+0  99365-4 0  9990
2 24944  86.3985 130.2503 0002264  90.4546 269.6910 14.36488265457949
IRIDIUM 33              
1 24946U 97051C   25200.54755103  .00000255  00000+0  82666-4 0  9999
2 24946  86.3901 129.5936 0007285 349.5160  10.5883 14.34908606457382
IRIDIUM 28              
1 24948U 97051E   25200.55300513  .00000272  00000+0  84566-4 0  9993
2 24948  86.3988 127.8262 0002159  72.2392 287.9041 14.37403606458496
IRIDIUM 36              
1 24967U 97056C   25200.44169480  .00000306  00000+0  95368-4 0  9993
2 24967  86.4009 159.4583 0002016  85.0745 275.0683 14.37629185456855
