<?xml version="1.0" encoding="UTF-8"?>
<ndm xmlns:xsi="http://www.w3.org/2001/XMLSchema-instance" xsi:noNamespaceSchemaLocation="https://sanaregistry.org/r/ndmxml_unqualified/ndmxml-2.0.0-master-2.0.xsd">
<omm id="CCSDS_OMM_VERS" version="2.0">
<header><CREATION_DATE/><ORIGINATOR/></header><body><segment><metadata><OBJECT_NAME>IRIDIUM 26</OBJECT_NAME><OBJECT_ID>1997-043A</OBJECT_ID><CENTER_NAME>EARTH</CENTER_NAME><REF_FRAME>TEME</REF_FRAME><TIME_SYSTEM>UTC</TIME_SYSTEM><MEAN_ELEMENT_THEORY>SGP4</MEAN_ELEMENT_THEORY></metadata><data><meanElements><EPOCH>2025-07-19T20:10:36.379776</EPOCH><MEAN_MOTION>14.37164503</MEAN_MOTION><ECCENTRICITY>.0002137</ECCENTRICITY><INCLINATION>86.3947</INCLINATION><RA_OF_ASC_NODE>96.9061</RA_OF_ASC_NODE><ARG_OF_PERICENTER>79.9280</ARG_OF_PERICENTER><MEAN_ANOMALY>280.2158</MEAN_ANOMALY></meanElements><tleParameters><EPHEMERIS_TYPE>0</EPHEMERIS_TYPE><CLASSIFICATION_TYPE>U</CLASSIFICATION_TYPE><NORAD_CAT_ID>24903</NORAD_CAT_ID><ELEMENT_SET_NO>999</ELEMENT_SET_NO><REV_AT_EPOCH>46143</REV_AT_EPOCH><BSTAR>.76163E-4</BSTAR><MEAN_MOTION_DOT>.246E-5</MEAN_MOTION_DOT><MEAN_MOTION_DDOT>0</MEAN_MOTION_DDOT></tleParameters></data></segment></body></omm>
<omm id="CCSDS_OMM_VERS" version="2.0">
<header><CREATION_DATE/><ORIGINATOR/></header><body><segment><metadata><OBJECT_NAME>IRIDIUM 22</OBJECT_NAME><OBJECT_ID>1997-043E</OBJECT_ID><CENTER_NAME>EARTH</CENTER_NAME><REF_FRAME>TEME</REF_FRAME><TIME_SYSTEM>UTC</TIME_SYSTEM><MEAN_ELEMENT_THEORY>SGP4</MEAN_ELEMENT_THEORY></metadata><data><meanElements><EPOCH>2025-07-19T17:28:06.130272</EPOCH><MEAN_MOTION>14.35974456</MEAN_MOTION><ECCENTRICITY>.0002093</ECCENTRICITY><INCLINATION>86.3955</INCLINATION><RA_OF_ASC_NODE>100.5220</RA_OF_ASC_NODE><ARG_OF_PERICENTER>85.3593</ARG_OF_PERICENTER><MEAN_ANOMALY>274.7843</MEAN_ANOMALY></meanElements><tleParameters><EPHEMERIS_TYPE>0</EPHEMERIS_TYPE><CLASSIFICATION_TYPE>U</CLASSIFICATION_TYPE><NORAD_CAT_ID>24907</NORAD_CAT_ID><ELEMENT_SET_NO>999</ELEMENT_SET_NO><REV_AT_EPOCH>46144</REV_AT_EPOCH><BSTAR>.69652E-4</BSTAR><MEAN_MOTION_DOT>.222E-5</MEAN_MOTION_DOT><MEAN_MOTION_DDOT>0</MEAN_MOTION_DDOT></tleParameters></data></segment></body></omm>
<omm id="CCSDS_OMM_VERS" version="2.0">
<header><CREATION_DATE/><ORIGINATOR/></header><body><segment><metadata><OBJECT_NAME>DUMMY MASS 1</OBJECT_NAME><OBJECT_ID>1997-048A</OBJECT_ID><CENTER_NAME>EARTH</CENTER_NAME><REF_FRAME>TEME</REF_FRAME><TIME_SYSTEM>UTC</TIME_SYSTEM><MEAN_ELEMENT_THEORY>SGP4</MEAN_ELEMENT_THEORY></metadata><data><meanElements><EPOCH>2025-07-19T07:33:07.931232</EPOCH><MEAN_MOTION>14.87006520</MEAN_MOTION><ECCENTRICITY>.0008251</ECCENTRICITY><INCLINATION>86.3364</INCLINATION><RA_OF_ASC_NODE>120.4798</RA_OF_ASC_NODE><ARG_OF_PERICENTER>47.2178</ARG_OF_PERICENTER><MEAN_ANOMALY>312.9740</MEAN_ANOMALY></meanElements><tleParameters><EPHEMERIS_TYPE>0</EPHEMERIS_TYPE><CLASSIFICATION_TYPE>U</CLASSIFICATION_TYPE><NORAD_CAT_ID>24925</NORAD_CAT_ID><ELEMENT_SET_NO>999</ELEMENT_SET_NO><REV_AT_EPOCH>50990</REV_AT_EPOCH><BSTAR>.31913E-4</BSTAR><MEAN_MOTION_DOT>.314E-5</MEAN_MOTION_DOT><MEAN_MOTION_DDOT>0</MEAN_MOTION_DDOT></tleParameters></data></segment></body></omm>
<omm id="CCSDS_OMM_VERS" version="2.0">
<header><CREATION_DATE/><ORIGINATOR/></header><body><segment><metadata><OBJECT_NAME>DUMMY MASS 2</OBJECT_NAME><OBJECT_ID>1997-048B</OBJECT_ID><CENTER_NAME>EARTH</CENTER_NAME><REF_FRAME>TEME</REF_FRAME><TIME_SYSTEM>UTC</TIME_SYSTEM><MEAN_ELEMENT_THEORY>SGP4</MEAN_ELEMENT_THEORY></metadata><data><meanElements><EPOCH>2025-07-19T18:04:46.226784</EPOCH><MEAN_MOTION>14.86758851</MEAN_MOTION><ECCENTRICITY>.0009292</ECCENTRICITY><INCLINATION>86.3367</INCLINATION><RA_OF_ASC_NODE>121.8903</RA_OF_ASC_NODE><ARG_OF_PERICENTER>54.0149</ARG_OF_PERICENTER><MEAN_ANOMALY>306.1936</MEAN_ANOMALY></meanElements><tleParameters><EPHEMERIS_TYPE>0</EPHEMERIS_TYPE><CLASSIFICATION_TYPE>U</CLASSIFICATION_TYPE><NORAD_CAT_ID>24926</NORAD_CAT_ID><ELEMENT_SET_NO>999</ELEMENT_SET_NO><REV_AT_EPOCH>50974</REV_AT_EPOCH><BSTAR>.33902E-4</BSTAR><MEAN_MOTION_DOT>.33E-5</MEAN_MOTION_DOT><MEAN_MOTION_DDOT>0</MEAN_MOTION_DDOT></tleParameters></data></segment></body></omm>
<omm id="CCSDS_OMM_VERS" version="2.0">
<header><CREATION_DATE/><ORIGINATOR/></header><body><segment><metadata><OBJECT_NAME>IRIDIUM 29</OBJECT_NAME><OBJECT_ID>1997-051A</OBJECT_ID><CENTER_NAME>EARTH</CENTER_NAME><REF_FRAME>TEME</REF_FRAME><TIME_SYSTEM>UTC</TIME_SYSTEM><MEAN_ELEMENT_THEORY>SGP4</MEAN_ELEMENT_THEORY></metadata><data><meanElements><EPOCH>2025-07-19T17:44:26.899872</EPOCH><MEAN_MOTION>14.36488265</MEAN_MOTION><ECCENTRICITY>.0002264</ECCENTRICITY><INCLINATION>86.3985</INCLINATION><RA_OF_ASC_NODE>130.2503</RA_OF_ASC_NODE><ARG_OF_PERICENTER>90.4546</ARG_OF_PERICENTER><MEAN_ANOMALY>269.6910</MEAN_ANOMALY></meanElements><tleParameters><EPHEMERIS_TYPE>0</EPHEMERIS_TYPE><CLASSIFICATION_TYPE>U</CLASSIFICATION_TYPE><NORAD_CAT_ID>24944</NORAD_CAT_ID><ELEMENT_SET_NO>999</ELEMENT_SET_NO><REV_AT_EPOCH>45794</REV_AT_EPOCH><BSTAR>.99365E-4</BSTAR><MEAN_MOTION_DOT>.311E-5</MEAN_MOTION_DOT><MEAN_MOTION_DDOT>0</MEAN_MOTION_DDOT></tleParameters></data></segment></body></omm>
<omm id="CCSDS_OMM_VERS" version="2.0">
<header><CREATION_DATE/><ORIGINATOR/></header><body><segment><metadata><OBJECT_NAME>IRIDIUM 33</OBJECT_NAME><OBJECT_ID>1997-051C</OBJECT_ID><CENTER_NAME>EARTH</CENTER_NAME><REF_FRAME>TEME</REF_FRAME><TIME_SYSTEM>UTC</TIME_SYSTEM><MEAN_ELEMENT_THEORY>SGP4</MEAN_ELEMENT_THEORY></metadata><data><meanElements><EPOCH>2025-07-19T13:08:28.408992</EPOCH><MEAN_MOTION>14.34908606</MEAN_MOTION><ECCENTRICITY>.0007285</ECCENTRICITY><INCLINATION>86.3901</INCLINATION><RA_OF_ASC_NODE>129.5936</RA_OF_ASC_NODE><ARG_OF_PERICENTER>349.5160</ARG_OF_PERICENTER><MEAN_ANOMALY>10.5883</MEAN_ANOMALY></meanElements><tleParameters><EPHEMERIS_TYPE>0</EPHEMERIS_TYPE><CLASSIFICATION_TYPE>U</CLASSIFICATION_TYPE><NORAD_CAT_ID>24946</NORAD_CAT_ID><ELEMENT_SET_NO>999</ELEMENT_SET_NO><REV_AT_EPOCH>45738</REV_AT_EPOCH><BSTAR>.82666E-4</BSTAR><MEAN_MOTION_DOT>.255E-5</MEAN_MOTION_DOT><MEAN_MOTION_DDOT>0</MEAN_MOTION_DDOT></tleParameters></data></segment></body></omm>
<omm id="CCSDS_OMM_VERS" version="2.0">
<header><CREATION_DATE/><ORIGINATOR/></header><body><segment><metadata><OBJECT_NAME>IRIDIUM 28</OBJECT_NAME><OBJECT_ID>1997-051E</OBJECT_ID><CENTER_NAME>EARTH</CENTER_NAME><REF_FRAME>TEME</REF_FRAME><TIME_SYSTEM>UTC</TIME_SYSTEM><MEAN_ELEMENT_THEORY>SGP4</MEAN_ELEMENT_THEORY></metadata><data><meanElements><EPOCH>2025-07-19T13:16:19.643232</EPOCH><MEAN_MOTION>14.37403606</MEAN_MOTION><ECCENTRICITY>.0002159</ECCENTRICITY><INCLINATION>86.3988</INCLINATION><RA_OF_ASC_NODE>127.8262</RA_OF_ASC_NODE><ARG_OF_PERICENTER>72.2392</ARG_OF_PERICENTER><MEAN_ANOMALY>287.9041</MEAN_ANOMALY></meanElements><tleParameters><EPHEMERIS_TYPE>0</EPHEMERIS_TYPE><CLASSIFICATION_TYPE>U</CLASSIFICATION_TYPE><NORAD_CAT_ID>24948</NORAD_CAT_ID><ELEMENT_SET_NO>999</ELEMENT_SET_NO><REV_AT_EPOCH>45849</REV_AT_EPOCH><BSTAR>.84566E-4</BSTAR><MEAN_MOTION_DOT>.272E-5</MEAN_MOTION_DOT><MEAN_MOTION_DDOT>0</MEAN_MOTION_DDOT></tleParameters></data></segment></body></omm>
<omm id="CCSDS_OMM_VERS" version="2.0">
<header><CREATION_DATE/><ORIGINATOR/></header><body><segment><metadata><OBJECT_NAME>IRIDIUM 36</OBJECT_NAME><OBJECT_ID>1997-056C</OBJECT_ID><CENTER_NAME>EARTH</CENTER_NAME><REF_FRAME>TEME</REF_FRAME><TIME_SYSTEM>UTC</TIME_SYSTEM><MEAN_ELEMENT_THEORY>SGP4</MEAN_ELEMENT_THEORY></metadata><data><meanElements><EPOCH>2025-07-19T10:36:02.430720</EPOCH><MEAN_MOTION>14.37629185</MEAN_MOTION><ECCENTRICITY>.0002016</ECCENTRICITY><INCLINATION>86.4009</INCLINATION><RA_OF_ASC_NODE>159.4583</RA_OF_ASC_NODE><ARG_OF_PERICENTER>85.0745</ARG_OF_PERICENTER><MEAN_ANOMALY>275.0683</MEAN_ANOMALY></meanElements><tleParameters><EPHEMERIS_TYPE>0</EPHEMERIS_TYPE><CLASSIFICATION_TYPE>U</CLASSIFICATION_TYPE><NORAD_CAT_ID>24967</NORAD_CAT_ID><ELEMENT_SET_NO>999</ELEMENT_SET_NO><REV_AT_EPOCH>45685</REV_AT_EPOCH><BSTAR>.95368E-4</BSTAR><MEAN_MOTION_DOT>.306E-5</MEAN_MOTION_DOT><MEAN_MOTION_DDOT>0</MEAN_MOTION_DDOT></tleParameters></data></segment></body></omm>

</ndm>
